CCSDS_OMM_VERS = 2.0
CREATION_DATE  = 
ORIGINATOR     = 

OBJECT_NAME    = CZ-2C R/B
OBJECT_ID      = 2022-058K
CENTER_NAME    = EARTH
REF_FRAME      = TEME
TIME_SYSTEM    = UTC
MEAN_ELEMENT_THEORY = SGP/SGP4

EPOCH          = 2025-11-22T09:44:51.283104
MEAN_MOTION    = 15.47084262
ECCENTRICITY   = .0047781
INCLINATION    = 50.1881
RA_OF_ASC_NODE = 147.1338
ARG_OF_PERICENTER = 114.4156
MEAN_ANOMALY   = 246.1808

EPHEMERIS_TYPE = 0
CLASSIFICATION_TYPE = U
NORAD_CAT_ID   = 52794
ELEMENT_SET_NO = 999
REV_AT_EPOCH   = 19348
BSTAR          = .60488E-3
MEAN_MOTION_DOT = .32299E-3
MEAN_MOTION_DDOT = 0

CCSDS_OMM_VERS = 2.0
CREATION_DATE  = 
ORIGINATOR     = 

OBJECT_NAME    = CZ-2C R/B
OBJECT_ID      = 2022-132E
CENTER_NAME    = EARTH
REF_FRAME      = TEME
TIME_SYSTEM    = UTC
MEAN_ELEMENT_THEORY = SGP/SGP4

EPOCH          = 2025-11-21T23:59:22.032384
MEAN_MOTION    = 15.53147803
ECCENTRICITY   = .0023643
INCLINATION    = 97.2945
RA_OF_ASC_NODE = 321.8301
ARG_OF_PERICENTER = 125.0244
MEAN_ANOMALY   = 235.3232

EPHEMERIS_TYPE = 0
CLASSIFICATION_TYPE = U
NORAD_CAT_ID   = 54039
ELEMENT_SET_NO = 999
REV_AT_EPOCH   = 17361
BSTAR          = .44459E-3
MEAN_MOTION_DOT = .28161E-3
MEAN_MOTION_DDOT = 0

CCSDS_OMM_VERS = 2.0
CREATION_DATE  = 
ORIGINATOR     = 

OBJECT_NAME    = GSLV R/B
OBJECT_ID      = 2022-138AN
CENTER_NAME    = EARTH
REF_FRAME      = TEME
TIME_SYSTEM    = UTC
MEAN_ELEMENT_THEORY = SGP/SGP4

EPOCH          = 2025-11-22T02:53:31.828992
MEAN_MOTION    = 14.95977423
ECCENTRICITY   = .002155
INCLINATION    = 87.3846
RA_OF_ASC_NODE = 202.3761
ARG_OF_PERICENTER = 175.5930
MEAN_ANOMALY   = 184.5495

EPHEMERIS_TYPE = 0
CLASSIFICATION_TYPE = U
NORAD_CAT_ID   = 54149
ELEMENT_SET_NO = 999
REV_AT_EPOCH   = 16784
BSTAR          = .27114E-3
MEAN_MOTION_DOT = .3079E-4
MEAN_MOTION_DDOT = 0

CCSDS_OMM_VERS = 2.0
CREATION_DATE  = 
ORIGINATOR     = 

OBJECT_NAME    = XRISM
OBJECT_ID      = 2023-137A
CENTER_NAME    = EARTH
REF_FRAME      = TEME
TIME_SYSTEM    = UTC
MEAN_ELEMENT_THEORY = SGP/SGP4

EPOCH          = 2025-11-22T00:20:57.905376
MEAN_MOTION    = 15.10059073
ECCENTRICITY   = .0007657
INCLINATION    = 31.0028
RA_OF_ASC_NODE = 259.3278
ARG_OF_PERICENTER = 34.1340
MEAN_ANOMALY   = 325.9789

EPHEMERIS_TYPE = 0
CLASSIFICATION_TYPE = U
NORAD_CAT_ID   = 57800
ELEMENT_SET_NO = 999
REV_AT_EPOCH   = 12149
BSTAR          = .40059E-3
MEAN_MOTION_DOT = .678E-4
MEAN_MOTION_DDOT = 0

CCSDS_OMM_VERS = 2.0
CREATION_DATE  = 
ORIGINATOR     = 

OBJECT_NAME    = ACS3
OBJECT_ID      = 2024-077B
CENTER_NAME    = EARTH
REF_FRAME      = TEME
TIME_SYSTEM    = UTC
MEAN_ELEMENT_THEORY = SGP/SGP4

EPOCH          = 2025-11-21T12:15:23.196096
MEAN_MOTION    = 13.84103631
ECCENTRICITY   = .0069329
INCLINATION    = 97.2974
RA_OF_ASC_NODE = 285.8483
ARG_OF_PERICENTER = 17.3855
MEAN_ANOMALY   = 342.9657

EPHEMERIS_TYPE = 0
CLASSIFICATION_TYPE = U
NORAD_CAT_ID   = 59588
ELEMENT_SET_NO = 999
REV_AT_EPOCH   = 7920
BSTAR          = .23825E-1
MEAN_MOTION_DOT = .27085E-3
MEAN_MOTION_DDOT = 0

